COSMOS 1933             
1 18958U 88020A   25364.16465654  .00008087  00000+0  40448-3 0  9991
2 18958  82.5135 319.6604 0006463  84.0542 276.1427 15.17273040 39683
SL-3 R/B                
1 19046U 88032B   25364.18856542  .00007784  00000+0  37201-3 0  9991
2 19046  97.5092 342.7917 0028279 114.4168 246.0022 15.18934152 41550
SL-16 R/B               
1 19120U 88039B   25364.01057316  .00000029  00000+0  36317-4 0  9998
2 19120  71.0125 215.8814 0019542  86.7068 273.6292 14.19599983948499
COSMOS 1953             
1 19210U 88050A   25363.34859606  .00008063  00000+0  30114-3 0  9992
2 19210  82.5080 228.9139 0012535  18.6006 341.5688 15.27141359 27045
SL-8 R/B                
1 19257U 88053B   25364.14099372  .00000399  00000+0  13798-3 0  9994
2 19257  74.0463 240.6497 0018981  78.2137  36.7188 14.38870886966598
COSMOS 1975             
1 19573U 88093A   25364.01984112  .00011102  00000+0  42000-3 0  9992
2 19573  82.5191 187.5259 0012854  58.5353 301.7140 15.26740194  8776
SL-14 R/B               
1 19574U 88093B   25364.03935007  .00000854  00000+0  95709-4 0  9991
2 19574  82.5320 107.4337 0019223 268.4917 264.8093 14.85570434990693
SL-16 R/B               
1 19650U 88102B   25364.11735194 -.00000102  00000+0 -27484-4 0  9994
2 19650  71.0007 297.8793 0012061 122.0262 238.2034 14.16142897917044
INTERCOSMOS 24          
1 20261U 89080A   25364.14238571  .00000872  00000+0  24771-3 0  9997
2 20261  82.6062 149.6394 1189000  94.1682 279.5883 12.59468370658042
SL-14 R/B               
1 20262U 89080C   25364.10535655  .00000473  00000+0  14055-3 0  9998
2 20262  82.5911 217.8717 1230289 343.9044  12.6000 12.50427444651458
DELTA 1 R/B             
1 20323U 89089B   25364.16046044  .00000603  00000+0  15815-3 0  9990
2 20323  97.0741 217.6364 0068702 343.5758  16.3214 14.50588222885653
ARIANE 40 R/B           
1 20443U 90005H   25364.18225987  .00000481  00000+0  16682-3 0  9997
2 20443  98.3220  61.8653 0010998  58.2875 301.9384 14.39812559882801
